NORAD_CAT_ID,OBJECT_NAME,OBJECT_TYPE,EPOCH,MEAN_MOTION,ECCENTRICITY,INCLINATION,RA_OF_ASC_NODE,ARG_OF_PERICENTER,MEAN_ANOMALY,BSTAR,MEAN_MOTION_DOT,MEAN_MOTION_DDOT,TLE_LINE0,TLE_LINE1,TLE_LINE2,SEMIMAJOR_AXIS,PERIOD,APOGEE,PERIGEE,DECAYED
53290.0,STARLINK-4149,PAYLOAD,2023-06-09 20:28:45,15.08834493,9.54e-05,53.2175,10.5166,88.3051,271.8051,5.9319e-05,6.56e-06,0.0,0 STARLINK-4149,1 53290U 22086BA  23160.85330446  .00000656  00000-0  59319-4 0  9990,2 53290  53.2175  10.5166 0000954  88.3051 271.8051 15.08834493 49648,6917.897,95.438,540.422,539.102,0.0
53290.0,STARLINK-4149,PAYLOAD,2023-06-10 09:11:50,15.08840734,0.000106,53.2175,8.1379,89.4874,270.624,4.9428e-05,4.99e-06,0.0,0 STARLINK-4149,1 53290U 22086BA  23161.38322111  .00000499  00000-0  49428-4 0  9994,2 53290  53.2175   8.1379 0001060  89.4874 270.6240 15.08840734 49564,6917.878,95.438,540.476,539.01,0.0
53290.0,STARLINK-4149,PAYLOAD,2023-06-10 20:19:32,15.08844686,9.22e-05,53.2178,6.0551,92.5157,267.594,4.2512e-05,3.89e-06,0.0,0 STARLINK-4149,1 53290U 22086BA  23161.84689825  .00000389  00000-0  42512-4 0  9998,2 53290  53.2178   6.0551 0000922  92.5157 267.5940 15.08844686 49798,6917.866,95.437,540.369,539.093,0.0
53290.0,STARLINK-4149,PAYLOAD,2023-06-10 23:30:18,15.08817717,0.0001166,53.2176,5.4603,102.239,257.8733,0.00042969,6.553e-05,0.0,0 STARLINK-4149,1 53290U 22086BA  23161.97938284  .00006553  00000-0  42969-3 0  9992,2 53290  53.2176   5.4603 0001166 102.2390 257.8733 15.08817717 49658,6917.949,95.439,540.62,539.007,0.0
53290.0,STARLINK-4149,PAYLOAD,2023-06-11 13:48:47,15.08833932,0.0001098,53.2171,2.783,97.9836,262.128,2.0344e-05,3.6e-07,0.0,0 STARLINK-4149,1 53290U 22086BA  23162.57554615  .00000036  00000-0  20344-4 0  9995,2 53290  53.2171   2.7830 0001098  97.9836 262.1280 15.08833932 49905,6917.899,95.438,540.524,539.004,0.0
53290.0,STARLINK-4149,PAYLOAD,2023-06-11 20:10:19,15.08837388,9.78e-05,53.2175,1.5949,82.7744,277.3359,6.446e-05,7.38e-06,0.0,0 STARLINK-4149,1 53290U 22086BA  23162.84050388  .00000738  00000-0  64460-4 0  9999,2 53290  53.2175   1.5949 0000978  82.7744 277.3359 15.08837388 49941,6917.888,95.438,540.43,539.077,0.0
53290.0,STARLINK-4149,PAYLOAD,2023-06-11 23:21:05,15.08839936,9.9e-05,53.2176,1.0,81.6968,278.4136,4.832e-05,4.81e-06,0.0,0 STARLINK-4149,1 53290U 22086BA  23162.97298299  .00000481  00000-0  48320-4 0  9990,2 53290  53.2176   1.0000 0000990  81.6968 278.4136 15.08839936 49806,6917.881,95.438,540.43,539.061,0.0
53290.0,STARLINK-4149,PAYLOAD,2023-06-12 20:01:06,15.08839096,9.48e-05,53.2177,357.1341,82.1785,277.9315,4.9849e-05,5.06e-06,0.0,0 STARLINK-4149,1 53290U 22086BA  23163.83410417  .00000506  00000-0  49849-4 0  9999,2 53290  53.2177 357.1341 0000948  82.1785 277.9315 15.08839096 50099,6917.883,95.438,540.404,539.092,0.0
53290.0,STARLINK-4149,PAYLOAD,2023-06-13 11:54:58,15.08835898,0.000107,53.2168,354.1625,85.0844,275.0271,6.2908e-05,7.13e-06,0.0,0 STARLINK-4149,1 53290U 22086BA  23164.49650700  .00000713  00000-0  62908-4 0  9994,2 53290  53.2168 354.1625 0001070  85.0844 275.0271 15.08835898 50036,6917.893,95.438,540.498,539.018,0.0
53290.0,STARLINK-4149,PAYLOAD,2023-06-13 19:51:53,15.0883582,0.0001225,53.2173,352.6759,94.5229,265.5903,4.817e-05,4.79e-06,0.0,0 STARLINK-4149,1 53290U 22086BA  23164.82770827  .00000479  00000-0  48170-4 0  9998,2 53290  53.2173 352.6759 0001225  94.5229 265.5903 15.08835820 50241,6917.893,95.438,540.606,538.911,0.0
53290.0,STARLINK-4149,PAYLOAD,2023-06-14 11:45:45,15.08834796,0.0001267,53.2179,349.6994,71.8551,288.2579,4.0814e-05,3.62e-06,0.0,0 STARLINK-4149,1 53290U 22086BA  23165.49011110  .00000362  00000-0  40814-4 0  9993,2 53290  53.2179 349.6994 0001267  71.8551 288.2579 15.08834796 50349,6917.896,95.438,540.638,538.885,0.0
53290.0,STARLINK-4149,PAYLOAD,2023-06-14 14:56:31,15.08834792,8.86e-05,53.2174,349.1068,80.0151,280.0941,-1.0661e-05,-4.57e-06,0.0,0 STARLINK-4149,1 53290U 22086BA  23165.62259198 -.00000457  00000-0 -10661-4 0  9992,2 53290  53.2174 349.1068 0000886  80.0151 280.0941 15.08834792 50209,6917.896,95.438,540.374,539.148,0.0
53290.0,STARLINK-4149,PAYLOAD,2023-06-15 11:36:32,15.08838718,9.62e-05,53.2169,345.2401,83.7777,276.3324,4.2686e-05,3.92e-06,0.0,0 STARLINK-4149,1 53290U 22086BA  23166.48370965  .00000392  00000-0  42686-4 0  9991,2 53290  53.2169 345.2401 0000962  83.7777 276.3324 15.08838718 50496,6917.884,95.438,540.415,539.084,0.0
53290.0,STARLINK-4149,PAYLOAD,2023-06-15 17:58:04,15.08842546,9.32e-05,53.2176,344.0512,85.6305,274.4794,7.671e-05,9.33e-06,0.0,0 STARLINK-4149,1 53290U 22086BA  23166.74866629  .00000933  00000-0  76710-4 0  9993,2 53290  53.2176 344.0512 0000932  85.6305 274.4794 15.08842546 50370,6917.873,95.437,540.382,539.093,0.0
53290.0,STARLINK-4149,PAYLOAD,2023-06-16 11:27:19,15.0884192,0.0001021,53.2179,340.7804,80.4971,279.6137,0.00012963,1.776e-05,0.0,0 STARLINK-4149,1 53290U 22086BA  23167.47730485  .00001776  00000-0  12963-3 0  9999,2 53290  53.2179 340.7804 0001021  80.4971 279.6137 15.08841920 50645,6917.875,95.437,540.446,539.033,0.0
53290.0,STARLINK-4149,PAYLOAD,2023-06-16 17:48:50,15.08851975,0.0001023,53.2174,339.5901,85.8602,274.2507,0.00019022,2.742e-05,0.0,0 STARLINK-4149,1 53290U 22086BA  23167.74225564  .00002742  00000-0  19022-3 0  9993,2 53290  53.2174 339.5901 0001023  85.8602 274.2507 15.08851975 50683,6917.844,95.437,540.416,539.001,0.0
53290.0,STARLINK-4149,PAYLOAD,2023-06-17 04:56:33,15.08844759,7.9e-05,53.2173,337.5092,81.6322,278.4759,9.9036e-05,1.289e-05,0.0,0 STARLINK-4149,1 53290U 22086BA  23168.20594078  .00001289  00000-0  99036-4 0  9993,2 53290  53.2173 337.5092 0000790  81.6322 278.4759 15.08844759 50591,6917.866,95.437,540.277,539.184,0.0
53290.0,STARLINK-4149,PAYLOAD,2023-06-17 11:18:06,15.0883439,0.0001441,53.2182,336.3202,92.074,268.0417,1.156e-05,-1.04e-06,0.0,0 STARLINK-4149,1 53290U 22086BA  23168.47091252 -.00000104  00000-0  11560-4 0  9990,2 53290  53.2182 336.3202 0001441  92.0740 268.0417 15.08834390 50793,6917.898,95.438,540.759,538.766,0.0
53290.0,STARLINK-4149,PAYLOAD,2023-06-17 17:39:39,15.08832938,0.0001438,53.2182,335.1305,93.2204,266.8953,-2.4759e-06,-3.27e-06,0.0,0 STARLINK-4149,1 53290U 22086BA  23168.73587463 -.00000327  00000-0 -24759-5 0  9996,2 53290  53.2182 335.1305 0001438  93.2204 266.8953 15.08832938 50672,6917.902,95.438,540.762,538.772,0.0
53290.0,STARLINK-4149,PAYLOAD,2023-06-17 19:15:03,15.08829855,0.0001023,53.2179,334.8326,100.9594,259.1514,-6.6098e-05,-1.339e-05,0.0,0 STARLINK-4149,1 53290U 22086BA  23168.80211806 -.00001339  00000-0 -66098-4 0  9994,2 53290  53.2179 334.8326 0001023 100.9594 259.1514 15.08829855 50846,6917.911,95.438,540.484,539.069,0.0
53290.0,STARLINK-4149,PAYLOAD,2023-06-18 11:08:53,15.0884385,9.65e-05,53.2185,331.8596,108.1488,251.9609,-9.1554e-06,-4.33e-06,0.0,0 STARLINK-4149,1 53290U 22086BA  23169.46450902 -.00000433  00000-0 -91554-5 0  9999,2 53290  53.2185 331.8596 0000965 108.1488 251.9609 15.08843850 50942,6917.869,95.437,540.401,539.066,0.0
53290.0,STARLINK-4149,PAYLOAD,2023-06-18 17:30:25,15.08848944,8.9e-05,53.2181,330.6706,99.1615,260.9478,8.3609e-05,1.043e-05,0.0,0 STARLINK-4149,1 53290U 22086BA  23169.72946338  .00001043  00000-0  83609-4 0  9998,2 53290  53.2181 330.6706 0000890  99.1615 260.9478 15.08848944 50826,6917.853,95.437,540.334,539.102,0.0
53290.0,STARLINK-4149,PAYLOAD,2023-06-19 10:59:41,15.08827234,7.63e-05,53.2185,327.3998,105.2802,254.8274,0.0002113,3.076e-05,0.0,0 STARLINK-4149,1 53290U 22086BA  23170.45811431  .00003076  00000-0  21130-3 0  9993,2 53290  53.2185 327.3998 0000763 105.2802 254.8274 15.08827234 50939,6917.919,95.438,540.312,539.257,0.0
53290.0,STARLINK-4149,PAYLOAD,2023-06-19 17:21:13,15.08834412,7.68e-05,53.218,326.2099,105.1008,255.0069,0.00024071,3.545e-05,0.0,0 STARLINK-4149,1 53290U 22086BA  23170.72307051  .00003545  00000-0  24071-3 0  9999,2 53290  53.2180 326.2099 0000768 105.1008 255.0069 15.08834412 51130,6917.897,95.438,540.294,539.231,0.0
53290.0,STARLINK-4149,PAYLOAD,2023-06-20 02:53:31,15.08840842,5.53e-05,53.2178,324.4259,104.0225,256.0829,0.00014552,2.029e-05,0.0,0 STARLINK-4149,1 53290U 22086BA  23171.12050924  .00002029  00000-0  14552-3 0  9997,2 53290  53.2178 324.4259 0000553 104.0225 256.0829 15.08840842 51034,6917.878,95.438,540.125,539.36,0.0
53290.0,STARLINK-4149,PAYLOAD,2023-06-20 10:50:28,15.08844147,0.0001002,53.2192,322.941,113.5205,246.5892,-0.00010324,-1.931e-05,0.0,0 STARLINK-4149,1 53290U 22086BA  23171.45171498 -.00001931  00000-0 -10324-3 0  9999,2 53290  53.2192 322.9410 0001002 113.5205 246.5892 15.08844147 51244,6917.868,95.437,540.426,539.04,0.0
53290.0,STARLINK-4149,PAYLOAD,2023-06-20 17:12:00,15.0883666,7.48e-05,53.2195,321.7516,109.2159,250.8914,-5.035e-06,-3.68e-06,0.0,0 STARLINK-4149,1 53290U 22086BA  23171.71667652 -.00000368  00000-0 -50350-5 0  9998,2 53290  53.2195 321.7516 0000748 109.2159 250.8914 15.08836660 51128,6917.891,95.438,540.273,539.238,0.0
53290.0,STARLINK-4149,PAYLOAD,2023-06-21 09:05:52,15.08830898,0.0001545,53.2197,318.7775,118.9971,241.1177,0.00018299,2.625e-05,0.0,0 STARLINK-4149,1 53290U 22086BA  23172.37907501  .00002625  00000-0  18299-3 0  9991,2 53290  53.2197 318.7775 0001545 118.9971 241.1177 15.08830898 51387,6917.908,95.438,540.842,538.704,0.0
53290.0,STARLINK-4149,PAYLOAD,2023-06-21 17:02:47,15.08845855,7.25e-05,53.2187,317.2897,93.4313,266.6763,9.4522e-05,1.217e-05,0.0,0 STARLINK-4149,1 53290U 22086BA  23172.71026951  .00001217  00000-0  94522-4 0  9990,2 53290  53.2187 317.2897 0000725  93.4313 266.6763 15.08845855 51271,6917.862,95.437,540.229,539.226,0.0
53290.0,STARLINK-4149,PAYLOAD,2023-06-22 10:32:02,15.08829342,7.79e-05,53.2188,314.0188,89.7275,270.3806,7.0394e-05,8.33e-06,0.0,0 STARLINK-4149,1 53290U 22086BA  23173.43892160  .00000833  00000-0  70394-4 0  9997,2 53290  53.2188 314.0188 0000779  89.7275 270.3806 15.08829342 51389,6917.913,95.438,540.317,539.239,0.0
